STARLINK-6200           
1 56897U 23083X   25300.73495948  .00000230  00000+0  32066-4 0  9995
2 56897  43.0018  83.9443 0001242 270.9034  89.1666 15.02538428131793
STARLINK-6205           
1 56898U 23083Y   25301.12383830  .00000709  00000+0  67580-4 0  9996
2 56898  43.0038  81.7038 0001307 277.6519  82.4175 15.02539972131848
STARLINK-6203           
1 56899U 23083Z   25301.12717125 -.00000184  00000+0  14519-5 0  9998
2 56899  43.0035  81.7278 0001262 273.7657  86.3041 15.02533668131843
STARLINK-6207           
1 56900U 23083AA  25301.06102398  .00005899  00000+0  45091-3 0  9998
2 56900  43.0028  69.9576 0001140 257.9830 102.0884 15.02578379131837
STARLINK-6185           
1 56901U 23083AB  25301.12162351 -.00001008  00000+0 -59521-4 0  9995
2 56901  43.0030  81.6872 0001459 275.7423  84.3253 15.02535867131848
STARLINK-6195           
1 56902U 23083AC  25301.05773109 -.00009333  00000+0 -67601-3 0  9993
2 56902  43.0021  69.9321 0001002 265.4882  94.5846 15.02576475131971
STARLINK-6192           
1 56903U 23083AD  25301.12494980  .00001042  00000+0  92232-4 0  9995
2 56903  43.0037  81.7115 0001627 273.8623  86.2034 15.02536619131840
STARLINK-6193           
1 56904U 23083AE  25300.70211332  .00067001  00000+0  49712-2 0  9997
2 56904  43.0022  71.5620 0001299  95.9725 264.1266 15.02203312131816
STARLINK-6183           
1 56905U 23083AF  25301.05440783  .00000952  00000+0  85536-4 0  9999
2 56905  43.0028  69.9091 0001315 266.5746  93.4946 15.02538232131869
STARLINK-6098           
1 56906U 23083AG  25301.05109555  .00004056  00000+0  31522-3 0  9993
2 56906  43.0033  69.8802 0001455 270.3589  89.7086 15.02528130131867
STARLINK-6110           
1 56907U 23083AH  25301.05218777  .00001390  00000+0  11795-3 0  9999
2 56907  43.0032  69.8904 0001296 270.5168  89.5526 15.02538674131971
STARLINK-6186           
1 56908U 23083AJ  25300.70869839  .00001676  00000+0  13913-3 0  9993
2 56908  43.0037  71.6106 0001289 273.7187  86.3508 15.02521879131817
STARLINK-5999           
1 56909U 23083AK  25301.05551829  .00000518  00000+0  53400-4 0  9990
2 56909  43.0043  69.9137 0001368 264.1603  95.9084 15.02537770131973
STARLINK-6179           
1 56910U 23083AL  25300.70315083  .00000258  00000+0  34187-4 0  9995
2 56910  43.0042  71.5692 0001380 266.5066  93.5618 15.02534413131813
STARLINK-6116           
1 56911U 23083AM  25301.04775187  .00001630  00000+0  13572-3 0  9998
2 56911  43.0038  69.8537 0000945 289.1436  70.9304 15.02541912131863
STARLINK-5805           
1 56912U 23083AN  25300.76518430  .00000337  00000+0  40013-4 0  9997
2 56912  43.0032  71.1734 0001218 271.8720  88.1983 15.02540769131820
