[{"OBJECT_NAME":"STARLINK-6200","OBJECT_ID":"2023-083X","EPOCH":"2025-10-27T17:38:20.499072","MEAN_MOTION":15.02538428,"ECCENTRICITY":0.00012421,"INCLINATION":43.0018,"RA_OF_ASC_NODE":83.9443,"ARG_OF_PERICENTER":270.9034,"MEAN_ANOMALY":89.1666,"EPHEMERIS_TYPE":0,"CLASSIFICATION_TYPE":"U","NORAD_CAT_ID":56897,"ELEMENT_SET_NO":999,"REV_AT_EPOCH":13179,"BSTAR":3.2066488e-5,"MEAN_MOTION_DOT":2.3e-6,"MEAN_MOTION_DDOT":0},{"OBJECT_NAME":"STARLINK-6205","OBJECT_ID":"2023-083Y","EPOCH":"2025-10-28T02:58:19.629120","MEAN_MOTION":15.02539972,"ECCENTRICITY":0.0001307,"INCLINATION":43.0038,"RA_OF_ASC_NODE":81.7038,"ARG_OF_PERICENTER":277.6519,"MEAN_ANOMALY":82.4175,"EPHEMERIS_TYPE":0,"CLASSIFICATION_TYPE":"U","NORAD_CAT_ID":56898,"ELEMENT_SET_NO":999,"REV_AT_EPOCH":13184,"BSTAR":6.7580035e-5,"MEAN_MOTION_DOT":7.09e-6,"MEAN_MOTION_DDOT":0},{"OBJECT_NAME":"STARLINK-6203","OBJECT_ID":"2023-083Z","EPOCH":"2025-10-28T03:03:07.596000","MEAN_MOTION":15.02533668,"ECCENTRICITY":0.00012624,"INCLINATION":43.0035,"RA_OF_ASC_NODE":81.7278,"ARG_OF_PERICENTER":273.7657,"MEAN_ANOMALY":86.3041,"EPHEMERIS_TYPE":0,"CLASSIFICATION_TYPE":"U","NORAD_CAT_ID":56899,"ELEMENT_SET_NO":999,"REV_AT_EPOCH":13184,"BSTAR":1.451916e-6,"MEAN_MOTION_DOT":-1.84e-6,"MEAN_MOTION_DDOT":0},{"OBJECT_NAME":"STARLINK-6207","OBJECT_ID":"2023-083AA","EPOCH":"2025-10-28T01:27:52.471872","MEAN_MOTION":15.02578379,"ECCENTRICITY":0.000114,"INCLINATION":43.0028,"RA_OF_ASC_NODE":69.9576,"ARG_OF_PERICENTER":257.983,"MEAN_ANOMALY":102.0884,"EPHEMERIS_TYPE":0,"CLASSIFICATION_TYPE":"U","NORAD_CAT_ID":56900,"ELEMENT_SET_NO":999,"REV_AT_EPOCH":13183,"BSTAR":0.00045090893,"MEAN_MOTION_DOT":5.899e-5,"MEAN_MOTION_DDOT":0},{"OBJECT_NAME":"STARLINK-6185","OBJECT_ID":"2023-083AB","EPOCH":"2025-10-28T02:55:08.271264","MEAN_MOTION":15.02535867,"ECCENTRICITY":0.00014592,"INCLINATION":43.003,"RA_OF_ASC_NODE":81.6872,"ARG_OF_PERICENTER":275.7423,"MEAN_ANOMALY":84.3253,"EPHEMERIS_TYPE":0,"CLASSIFICATION_TYPE":"U","NORAD_CAT_ID":56901,"ELEMENT_SET_NO":999,"REV_AT_EPOCH":13184,"BSTAR":-5.9521092e-5,"MEAN_MOTION_DOT":-1.008e-5,"MEAN_MOTION_DDOT":0},{"OBJECT_NAME":"STARLINK-6195","OBJECT_ID":"2023-083AC","EPOCH":"2025-10-28T01:23:07.966176","MEAN_MOTION":15.02576475,"ECCENTRICITY":0.00010026,"INCLINATION":43.0021,"RA_OF_ASC_NODE":69.9321,"ARG_OF_PERICENTER":265.4882,"MEAN_ANOMALY":94.5846,"EPHEMERIS_TYPE":0,"CLASSIFICATION_TYPE":"U","NORAD_CAT_ID":56902,"ELEMENT_SET_NO":999,"REV_AT_EPOCH":13197,"BSTAR":-0.0006760064,"MEAN_MOTION_DOT":-9.333e-5,"MEAN_MOTION_DDOT":0},{"OBJECT_NAME":"STARLINK-6192","OBJECT_ID":"2023-083AD","EPOCH":"2025-10-28T02:59:55.662720","MEAN_MOTION":15.02536619,"ECCENTRICITY":0.00016273,"INCLINATION":43.0037,"RA_OF_ASC_NODE":81.7115,"ARG_OF_PERICENTER":273.8623,"MEAN_ANOMALY":86.2034,"EPHEMERIS_TYPE":0,"CLASSIFICATION_TYPE":"U","NORAD_CAT_ID":56903,"ELEMENT_SET_NO":999,"REV_AT_EPOCH":13184,"BSTAR":9.2232096e-5,"MEAN_MOTION_DOT":1.042e-5,"MEAN_MOTION_DDOT":0},{"OBJECT_NAME":"STARLINK-6193","OBJECT_ID":"2023-083AE","EPOCH":"2025-10-27T16:51:02.590848","MEAN_MOTION":15.02203312,"ECCENTRICITY":0.00012997,"INCLINATION":43.0022,"RA_OF_ASC_NODE":71.562,"ARG_OF_PERICENTER":95.9725,"MEAN_ANOMALY":264.1266,"EPHEMERIS_TYPE":0,"CLASSIFICATION_TYPE":"U","NORAD_CAT_ID":56904,"ELEMENT_SET_NO":999,"REV_AT_EPOCH":13181,"BSTAR":0.0049712343,"MEAN_MOTION_DOT":0.00067001,"MEAN_MOTION_DDOT":0},{"OBJECT_NAME":"STARLINK-6183","OBJECT_ID":"2023-083AF","EPOCH":"2025-10-28T01:18:20.836512","MEAN_MOTION":15.02538232,"ECCENTRICITY":0.00013155,"INCLINATION":43.0028,"RA_OF_ASC_NODE":69.9091,"ARG_OF_PERICENTER":266.5746,"MEAN_ANOMALY":93.4946,"EPHEMERIS_TYPE":0,"CLASSIFICATION_TYPE":"U","NORAD_CAT_ID":56905,"ELEMENT_SET_NO":999,"REV_AT_EPOCH":13186,"BSTAR":8.5536457e-5,"MEAN_MOTION_DOT":9.52e-6,"MEAN_MOTION_DDOT":0},{"OBJECT_NAME":"STARLINK-6098","OBJECT_ID":"2023-083AG","EPOCH":"2025-10-28T01:13:34.655520","MEAN_MOTION":15.0252813,"ECCENTRICITY":0.00014557,"INCLINATION":43.0033,"RA_OF_ASC_NODE":69.8802,"ARG_OF_PERICENTER":270.3589,"MEAN_ANOMALY":89.7086,"EPHEMERIS_TYPE":0,"CLASSIFICATION_TYPE":"U","NORAD_CAT_ID":56906,"ELEMENT_SET_NO":999,"REV_AT_EPOCH":13186,"BSTAR":0.00031521879,"MEAN_MOTION_DOT":4.056e-5,"MEAN_MOTION_DDOT":0},{"OBJECT_NAME":"STARLINK-6110","OBJECT_ID":"2023-083AH","EPOCH":"2025-10-28T01:15:09.023328","MEAN_MOTION":15.02538674,"ECCENTRICITY":0.0001296,"INCLINATION":43.0032,"RA_OF_ASC_NODE":69.8904,"ARG_OF_PERICENTER":270.5168,"MEAN_ANOMALY":89.5526,"EPHEMERIS_TYPE":0,"CLASSIFICATION_TYPE":"U","NORAD_CAT_ID":56907,"ELEMENT_SET_NO":999,"REV_AT_EPOCH":13197,"BSTAR":0.00011794586,"MEAN_MOTION_DOT":1.39e-5,"MEAN_MOTION_DDOT":0},{"OBJECT_NAME":"STARLINK-6186","OBJECT_ID":"2023-083AJ","EPOCH":"2025-10-27T17:00:31.540896","MEAN_MOTION":15.02521879,"ECCENTRICITY":0.00012893,"INCLINATION":43.0037,"RA_OF_ASC_NODE":71.6106,"ARG_OF_PERICENTER":273.7187,"MEAN_ANOMALY":86.3508,"EPHEMERIS_TYPE":0,"CLASSIFICATION_TYPE":"U","NORAD_CAT_ID":56908,"ELEMENT_SET_NO":999,"REV_AT_EPOCH":13181,"BSTAR":0.00013913341,"MEAN_MOTION_DOT":1.676e-5,"MEAN_MOTION_DDOT":0},{"OBJECT_NAME":"STARLINK-5999","OBJECT_ID":"2023-083AK","EPOCH":"2025-10-28T01:19:56.780256","MEAN_MOTION":15.0253777,"ECCENTRICITY":0.00013684,"INCLINATION":43.0043,"RA_OF_ASC_NODE":69.9137,"ARG_OF_PERICENTER":264.1603,"MEAN_ANOMALY":95.9084,"EPHEMERIS_TYPE":0,"CLASSIFICATION_TYPE":"U","NORAD_CAT_ID":56909,"ELEMENT_SET_NO":999,"REV_AT_EPOCH":13197,"BSTAR":5.3400482e-5,"MEAN_MOTION_DOT":5.18e-6,"MEAN_MOTION_DDOT":0},{"OBJECT_NAME":"STARLINK-6179","OBJECT_ID":"2023-083AL","EPOCH":"2025-10-27T16:52:32.231712","MEAN_MOTION":15.02534413,"ECCENTRICITY":0.000138,"INCLINATION":43.0042,"RA_OF_ASC_NODE":71.5692,"ARG_OF_PERICENTER":266.5066,"MEAN_ANOMALY":93.5618,"EPHEMERIS_TYPE":0,"CLASSIFICATION_TYPE":"U","NORAD_CAT_ID":56910,"ELEMENT_SET_NO":999,"REV_AT_EPOCH":13181,"BSTAR":3.4186872e-5,"MEAN_MOTION_DOT":2.58e-6,"MEAN_MOTION_DDOT":0},{"OBJECT_NAME":"STARLINK-6116","OBJECT_ID":"2023-083AM","EPOCH":"2025-10-28T01:08:45.761568","MEAN_MOTION":15.02541912,"ECCENTRICITY":9.458e-5,"INCLINATION":43.0038,"RA_OF_ASC_NODE":69.8537,"ARG_OF_PERICENTER":289.1436,"MEAN_ANOMALY":70.9304,"EPHEMERIS_TYPE":0,"CLASSIFICATION_TYPE":"U","NORAD_CAT_ID":56911,"ELEMENT_SET_NO":999,"REV_AT_EPOCH":13186,"BSTAR":0.00013571908,"MEAN_MOTION_DOT":1.63e-5,"MEAN_MOTION_DDOT":0},{"OBJECT_NAME":"STARLINK-5805","OBJECT_ID":"2023-083AN","EPOCH":"2025-10-27T18:21:51.923520","MEAN_MOTION":15.02540769,"ECCENTRICITY":0.00012182,"INCLINATION":43.0032,"RA_OF_ASC_NODE":71.1734,"ARG_OF_PERICENTER":271.872,"MEAN_ANOMALY":88.1983,"EPHEMERIS_TYPE":0,"CLASSIFICATION_TYPE":"U","NORAD_CAT_ID":56912,"ELEMENT_SET_NO":999,"REV_AT_EPOCH":13182,"BSTAR":4.0012943e-5,"MEAN_MOTION_DOT":3.37e-6,"MEAN_MOTION_DDOT":0}]
